$$SOE
2461288.500000000, A.D. 2026-Sep-05 00:00:00.0000, 3.049675993176621E+08, 1.225505091139872E+06, 2.070675681992236E+07,
2461295.500000000, A.D. 2026-Sep-12 00:00:00.0000, 3.038329558063781E+08, 1.290935054233185E+07, 2.456920149443587E+07,
2461302.500000000, A.D. 2026-Sep-19 00:00:00.0000, 3.021790311176039E+08, 2.457109110399282E+07, 2.838964618718155E+07,
2461309.500000000, A.D. 2026-Sep-26 00:00:00.0000, 3.000056162043787E+08, 3.619054647175846E+07, 3.216127573476621E+07,
2461316.500000000, A.D. 2026-Oct-03 00:00:00.0000, 2.973133074665977E+08, 4.774735981462426E+07, 3.587726906694789E+07,
2461323.500000000, A.D. 2026-Oct-10 00:00:00.0000, 2.941035268881462E+08, 5.922102029263888E+07, 3.953080813191082E+07,
2461330.500000000, A.D. 2026-Oct-17 00:00:00.0000, 2.903785421206864E+08, 7.059088714142455E+07, 4.311508738033910E+07,
2461337.500000000, A.D. 2026-Oct-24 00:00:00.0000, 2.861414864010204E+08, 8.183621540324885E+07, 4.662332381635720E+07,
2461344.500000000, A.D. 2026-Oct-31 00:00:00.0000, 2.813963782615257E+08, 9.293618335002066E+07, 5.004876761437313E+07,
2461351.500000000, A.D. 2026-Nov-07 00:00:00.0000, 2.761481412397795E+08, 1.038699217808625E+08, 5.338471329821116E+07,
2461358.500000000, A.D. 2026-Nov-14 00:00:00.0000, 2.704026236469520E+08, 1.146165461687931E+08, 5.662451156141659E+07,
2461365.500000000, A.D. 2026-Nov-21 00:00:00.0000, 2.641666164173411E+08, 1.251551924115411E+08, 5.976158197282141E+07,
2461372.500000000, A.D. 2026-Nov-28 00:00:00.0000, 2.574478678678787E+08, 1.354650532419521E+08, 6.278942643466803E+07,
2461379.500000000, A.D. 2026-Dec-05 00:00:00.0000, 2.502550987920125E+08, 1.455254146790897E+08, 6.570164301626118E+07,
2461386.500000000, A.D. 2026-Dec-12 00:00:00.0000, 2.425980178213446E+08, 1.553156956585684E+08, 6.849194039593777E+07,
2461393.500000000, A.D. 2026-Dec-19 00:00:00.0000, 2.344873349237677E+08, 1.648154908717837E+08, 7.115415307397504E+07,
2461400.500000000, A.D. 2026-Dec-26 00:00:00.0000, 2.259347726449287E+08, 1.740046159539086E+08, 7.368225728283440E+07,
2461407.500000000, A.D. 2027-Jan-02 00:00:00.0000, 2.169530751077457E+08, 1.828631548172904E+08, 7.607038753113471E+07,
2461414.500000000, A.D. 2027-Jan-09 00:00:00.0000, 2.075560146152314E+08, 1.913715091153973E+08, 7.831285374162558E+07,
2461421.500000000, A.D. 2027-Jan-16 00:00:00.0000, 1.977583956109353E+08, 1.995104497864075E+08, 8.040415894131950E+07,
2461428.500000000, A.D. 2027-Jan-23 00:00:00.0000, 1.875760557545067E+08, 2.072611705504535E+08, 8.233901744772756E+07,
2461435.500000000, A.D. 2027-Jan-30 00:00:00.0000, 1.770258640070244E+08, 2.146053431985603E+08, 8.411237347217727E+07,
2461442.500000000, A.D. 2027-Feb-06 00:00:00.0000, 1.661257158588278E+08, 2.215251748698119E+08, 8.571942006241374E+07,
2461449.500000000, A.D. 2027-Feb-13 00:00:00.0000, 1.548945249527147E+08, 2.280034683538581E+08, 8.715561844632070E+07,
2461456.500000000, A.D. 2027-Feb-20 00:00:00.0000, 1.433522084430559E+08, 2.340236844021137E+08, 8.841671782871912E+07,
2461463.500000000, A.D. 2027-Feb-27 00:00:00.0000, 1.315196671976663E+08, 2.395700025935239E+08, 8.949877515014911E+07,
2461470.500000000, A.D. 2027-Mar-06 00:00:00.0000, 1.194187636097502E+08, 2.446273824021247E+08, 9.039817458316885E+07,
2461477.500000000, A.D. 2027-Mar-13 00:00:00.0000, 1.070722951795594E+08, 2.491816261858462E+08, 9.111164695190339E+07,
2461484.500000000, A.D. 2027-Mar-20 00:00:00.0000, 9.450396251132646E+07, 2.532194428987069E+08, 9.163628897098669E+07,
2461491.500000000, A.D. 2027-Mar-27 00:00:00.0000, 8.173833173477140E+07, 2.567285115825264E+08, 9.196958209435081E+07,
2461498.500000000, A.D. 2027-Apr-03 00:00:00.0000, 6.880079139797623E+07, 2.596975441611112E+08, 9.210941079633608E+07,
2461505.500000000, A.D. 2027-Apr-10 00:00:00.0000, 5.571750377742645E+07, 2.621163470980673E+08, 9.205408011802748E+07,
2461512.500000000, A.D. 2027-Apr-17 00:00:00.0000, 4.251535055773012E+07, 2.639758814126678E+08, 9.180233230535223E+07,
2461519.500000000, A.D. 2027-Apr-24 00:00:00.0000, 2.922187294169043E+07, 2.652683204749702E+08, 9.135336235113294E+07,
2461526.500000000, A.D. 2027-May-01 00:00:00.0000, 1.586520652719580E+07, 2.659871050712762E+08, 9.070683223754510E+07,
2461533.500000000, A.D. 2027-May-08 00:00:00.0000, 2.474011354784397E+06, 2.661269959404162E+08, 8.986288373491335E+07,
2461540.500000000, A.D. 2027-May-15 00:00:00.0000, -1.092260420394666E+07, 2.656841241833117E+08, 8.882214979895833E+07,
2461547.500000000, A.D. 2027-May-22 00:00:00.0000, -2.429516703992037E+07, 2.646560363855740E+08, 8.758576431816925E+07,
2461554.500000000, A.D. 2027-May-29 00:00:00.0000, -3.761392673850427E+07, 2.630417324167862E+08, 8.615536960957640E+07,
2461561.500000000, A.D. 2027-Jun-05 00:00:00.0000, -5.084894560297097E+07, 2.608416985177901E+08, 8.453312169267997E+07,
2461568.500000000, A.D. 2027-Jun-12 00:00:00.0000, -6.397019282683954E+07, 2.580579356026958E+08, 8.272169342044377E+07,
2461575.500000000, A.D. 2027-Jun-19 00:00:00.0000, -7.694764263588062E+07, 2.546939813562293E+08, 8.072427529028687E+07,
2461582.500000000, A.D. 2027-Jun-26 00:00:00.0000, -8.975137554968910E+07, 2.507549254272640E+08, 7.854457377913930E+07,
2461589.500000000, A.D. 2027-Jul-03 00:00:00.0000, -1.023516819996474E+08, 2.462474173436916E+08, 7.618680710559537E+07,
2461596.500000000, A.D. 2027-Jul-10 00:00:00.0000, -1.147191675815564E+08, 2.411796668360124E+08, 7.365569835593265E+07,
2461603.500000000, A.D. 2027-Jul-17 00:00:00.0000, -1.268248591753457E+08, 2.355614362798296E+08, 7.095646593394960E+07,
2461610.500000000, A.D. 2027-Jul-24 00:00:00.0000, -1.386403110046419E+08, 2.294040250216843E+08, 6.809481130932008E+07,
2461617.500000000, A.D. 2027-Jul-31 00:00:00.0000, -1.501377094205179E+08, 2.227202457331435E+08, 6.507690406587361E+07,
2461624.500000000, A.D. 2027-Aug-07 00:00:00.0000, -1.612899757826793E+08, 2.155243939347447E+08, 6.190936440496363E+07,
2461631.500000000, A.D. 2027-Aug-14 00:00:00.0000, -1.720708689066922E+08, 2.078322105069057E+08, 5.859924336177484E+07,
2461638.500000000, A.D. 2027-Aug-21 00:00:00.0000, -1.824550856304326E+08, 1.996608339695752E+08, 5.515400049917012E+07,
2461645.500000000, A.D. 2027-Aug-28 00:00:00.0000, -1.924183552733977E+08, 1.910287439451001E+08, 5.158147899600005E+07,
2461652.500000000, A.D. 2027-Sep-04 00:00:00.0000, -2.019375284474678E+08, 1.819556986401316E+08, 4.788987862841240E+07,
2461659.500000000, A.D. 2027-Sep-11 00:00:00.0000, -2.109906609207666E+08, 1.724626661488642E+08, 4.408772693089378E+07,
2461666.500000000, A.D. 2027-Sep-18 00:00:00.0000, -2.195570917322976E+08, 1.625717494563930E+08, 4.018384868812178E+07,
2461673.500000000, A.D. 2027-Sep-25 00:00:00.0000, -2.276175147209930E+08, 1.523061056435907E+08, 3.618733395666216E+07,
2461680.500000000, A.D. 2027-Oct-02 00:00:00.0000, -2.351540428658407E+08, 1.416898599533089E+08, 3.210750485371330E+07,
2461687.500000000, A.D. 2027-Oct-09 00:00:00.0000, -2.421502649727656E+08, 1.307480153958316E+08, 2.795388136683402E+07,
2461694.500000000, A.D. 2027-Oct-16 00:00:00.0000, -2.485912942937681E+08, 1.195063585636509E+08, 2.373614644118533E+07,
2461701.500000000, A.D. 2027-Oct-23 00:00:00.0000, -2.544638085599013E+08, 1.079913624064356E+08, 1.946411059222193E+07,
2461708.500000000, A.D. 2027-Oct-30 00:00:00.0000, -2.597560808885029E+08, 9.623008735180868E+07, 1.514767633219581E+07,
2461715.500000000, A.D. 2027-Nov-06 00:00:00.0000, -2.644580026591643E+08, 8.425008268041521E+07, 1.079680287852571E+07,
2461722.500000000, A.D. 2027-Nov-13 00:00:00.0000, -2.685611003769819E+08, 7.207928685567221E+07, 6.421471417629033E+06,
2461729.500000000, A.D. 2027-Nov-20 00:00:00.0000, -2.720585437449453E+08, 5.974592539205562E+07, 2.031650728139766E+06,
2461736.500000000, A.D. 2027-Nov-27 00:00:00.0000, -2.749451435129729E+08, 4.727840996589964E+07, -2.362736508417582E+06,
2461743.500000000, A.D. 2027-Dec-04 00:00:00.0000, -2.772173413931866E+08, 3.470524036688896E+07, -6.751846231416265E+06,
2461750.500000000, A.D. 2027-Dec-11 00:00:00.0000, -2.788731929542489E+08, 2.205490897106966E+07, -1.112594419105766E+07,
2461757.500000000, A.D. 2027-Dec-18 00:00:00.0000, -2.799123436413562E+08, 9.355808000524152E+06, -1.547543568364603E+07,
2461764.500000000, A.D. 2027-Dec-25 00:00:00.0000, -2.803359982349569E+08, -3.363859889685913E+06, -1.979089369544657E+07,
2461771.500000000, A.D. 2028-Jan-01 00:00:00.0000, -2.801468842155897E+08, -1.607616720689113E+07, -2.406308533078514E+07,
$$EOE